{"type": "FeatureCollection", "features": [ {"type": "Feature", "properties": {"norad_id": 30827, "name": "FENGYUN 1C DEB", "group": "fengyun-1c-debris", "lat": 57.012438511828535, "lon": 157.08834971760723, "alt_km": 757.4295033098524, "timestamp": "2025-12-03T22:42:32.913751+00:00", "meta": {"OBJECT_NAME": "FENGYUN 1C DEB", "OBJECT_ID": "1999-025AVM", "EPOCH": "2025-12-03T05:26:11.474016", "MEAN_MOTION": 14.37538922, "ECCENTRICITY": 0.0043378, "INCLINATION": 99.0025, "RA_OF_ASC_NODE": 322.1987, "ARG_OF_PERICENTER": 207.4055, "MEAN_ANOMALY": 152.4842, "EPHEMERIS_TYPE": 0, "CLASSIFICATION_TYPE": "U", "NORAD_CAT_ID": 30827, "ELEMENT_SET_NO": 999, "REV_AT_EPOCH": 96412, "BSTAR": 0.0034983, "MEAN_MOTION_DOT": 0.00010565, "MEAN_MOTION_DDOT": 0}, "tle": {"line1": "1 30827U 99025AVM 25337.22652169  .00010565  00000+0  34983-2 0  9993", "line2": "2 30827  99.0025 322.1987 0043378 207.4055 152.4842 14.37538922964129"}}, "geometry": {"type": "Point", "coordinates": [157.08834971760723, 57.012438511828535]}}, {"type": "Feature", "properties": {"norad_id": 30828, "name": "FENGYUN 1C DEB", "group": "fengyun-1c-debris", "lat": -11.017831660309138, "lon": 86.22050501301956, "alt_km": 760.2702192594379, "timestamp": "2025-12-03T22:42:32.913760+00:00", "meta": {"OBJECT_NAME": "FENGYUN 1C DEB", "OBJECT_ID": "1999-025AVN", "EPOCH": "2025-12-02T12:53:36.080160", "MEAN_MOTION": 14.76418196, "ECCENTRICITY": 0.02104459, "INCLINATION": 98.3765, "RA_OF_ASC_NODE": 83.1145, "ARG_OF_PERICENTER": 211.2329, "MEAN_ANOMALY": 211.6315, "EPHEMERIS_TYPE": 0, "CLASSIFICATION_TYPE": "U", "NORAD_CAT_ID": 30828, "ELEMENT_SET_NO": 999, "REV_AT_EPOCH": 98506, "BSTAR": 0.0024792056, "MEAN_MOTION_DOT": 0.00024862, "MEAN_MOTION_DDOT": 0}, "tle": {"line1": "1 30828U 99025AVN 25336.53722315  .00024862  00000+0  24792-2 0  9990", "line2": "2 30828  98.3765  83.1145 0210445 211.2329 211.6315 14.76418196985063"}}, "geometry": {"type": "Point", "coordinates": [86.22050501301956, -11.017831660309138]}}, {"type": "Feature", "properties": {"norad_id": 30829, "name": "FENGYUN 1C DEB", "group": "fengyun-1c-debris", "lat": 22.681312152285255, "lon": -32.87625543774034, "alt_km": 839.372538648111, "timestamp": "2025-12-03T22:42:32.913769+00:00", "meta": {"OBJECT_NAME": "FENGYUN 1C DEB", "OBJECT_ID": "1999-025AVP", "EPOCH": "2025-11-24T16:59:09.368448", "MEAN_MOTION": 14.0861447, "ECCENTRICITY": 0.00366216, "INCLINATION": 98.7745, "RA_OF_ASC_NODE": 321.8365, "ARG_OF_PERICENTER": 25.1121, "MEAN_ANOMALY": 335.182, "EPHEMERIS_TYPE": 0, "CLASSIFICATION_TYPE": "U", "NORAD_CAT_ID": 30829, "ELEMENT_SET_NO": 999, "REV_AT_EPOCH": 96179, "BSTAR": 0.00055259552, "MEAN_MOTION_DOT": 9.13e-06, "MEAN_MOTION_DDOT": 0}, "tle": {"line1": "1 30829U 99025AVP 25328.70774732  .00000913  00000+0  55260-3 0  9997", "line2": "2 30829  98.7745 321.8365 0036621  25.1121 335.1820 14.08614470961791"}}, "geometry": {"type": "Point", "coordinates": [-32.87625543774034, 22.681312152285255]}}, {"type": "Feature", "properties": {"norad_id": 30830, "name": "FENGYUN 1C DEB", "group": "fengyun-1c-debris", "lat": 56.293479881519794, "lon": 159.89333620908965, "alt_km": 846.917949693272, "timestamp": "2025-12-03T22:42:32.913778+00:00", "meta": {"OBJECT_NAME": "FENGYUN 1C DEB", "OBJECT_ID": "1999-025AVQ", "EPOCH": "2025-12-03T10:57:12.375936", "MEAN_MOTION": 14.1221439, "ECCENTRICITY": 0.0030289, "INCLINATION": 98.729, "RA_OF_ASC_NODE": 326.101, "ARG_OF_PERICENTER": 215.6071, "MEAN_ANOMALY": 298.5222, "EPHEMERIS_TYPE": 0, "CLASSIFICATION_TYPE": "U", "NORAD_CAT_ID": 30830, "ELEMENT_SET_NO": 999, "REV_AT_EPOCH": 96468, "BSTAR": 0.00037184, "MEAN_MOTION_DOT": 6.43e-06, "MEAN_MOTION_DDOT": 0}, "tle": {"line1": "1 30830U 99025AVQ 25337.45639324  .00000643  00000+0  37184-3 0  9993", "line2": "2 30830  98.7290 326.1010 0030289 215.6071 298.5222 14.12214390964688"}}, "geometry": {"type": "Point", "coordinates": [159.89333620908965, 56.293479881519794]}}, {"type": "Feature", "properties": {"norad_id": 30831, "name": "FENGYUN 1C DEB", "group": "fengyun-1c-debris", "lat": 80.66311046244496, "lon": 41.5535529405145, "alt_km": 746.2127014546759, "timestamp": "2025-12-03T22:42:32.913787+00:00", "meta": {"OBJECT_NAME": "FENGYUN 1C DEB", "OBJECT_ID": "1999-025AVR", "EPOCH": "2025-12-03T05:30:54.696672", "MEAN_MOTION": 14.31052649, "ECCENTRICITY": 0.0055822, "INCLINATION": 99.3279, "RA_OF_ASC_NODE": 129.2978, "ARG_OF_PERICENTER": 61.3241, "MEAN_ANOMALY": 299.3536, "EPHEMERIS_TYPE": 0, "CLASSIFICATION_TYPE": "U", "NORAD_CAT_ID": 30831, "ELEMENT_SET_NO": 999, "REV_AT_EPOCH": 65114, "BSTAR": 0.00059432, "MEAN_MOTION_DOT": 1.543e-05, "MEAN_MOTION_DDOT": 0}, "tle": {"line1": "1 30831U 99025AVR 25337.22979973  .00001543  00000+0  59432-3 0  9996", "line2": "2 30831  99.3279 129.2978 0055822  61.3241 299.3536 14.31052649651142"}}, "geometry": {"type": "Point", "coordinates": [41.5535529405145, 80.66311046244496]}}, {"type": "Feature", "properties": {"norad_id": 30833, "name": "FENGYUN 1C DEB", "group": "fengyun-1c-debris", "lat": -63.917444654798665, "lon": -77.83692710685233, "alt_km": 791.987879633426, "timestamp": "2025-12-03T22:42:32.913795+00:00", "meta": {"OBJECT_NAME": "FENGYUN 1C DEB", "OBJECT_ID": "1999-025AVT", "EPOCH": "2025-11-30T16:08:15.979488", "MEAN_MOTION": 14.26699546, "ECCENTRICITY": 0.00328082, "INCLINATION": 99.8434, "RA_OF_ASC_NODE": 119.2595, "ARG_OF_PERICENTER": 214.1796, "MEAN_ANOMALY": 145.7269, "EPHEMERIS_TYPE": 0, "CLASSIFICATION_TYPE": "U", "NORAD_CAT_ID": 30833, "ELEMENT_SET_NO": 999, "REV_AT_EPOCH": 64239, "BSTAR": 0.00062547884, "MEAN_MOTION_DOT": 1.467e-05, "MEAN_MOTION_DDOT": 0}, "tle": {"line1": "1 30833U 99025AVT 25334.67240717  .00001467  00000+0  62548-3 0  9998", "line2": "2 30833  99.8434 119.2595 0032808 214.1796 145.7269 14.26699546642399"}}, "geometry": {"type": "Point", "coordinates": [-77.83692710685233, -63.917444654798665]}}, {"type": "Feature", "properties": {"norad_id": 30836, "name": "FENGYUN 1C DEB", "group": "fengyun-1c-debris", "lat": 34.93413339841605, "lon": -162.99906453728624, "alt_km": 861.2266028034692, "timestamp": "2025-12-03T22:42:32.913804+00:00", "meta": {"OBJECT_NAME": "FENGYUN 1C DEB", "OBJECT_ID": "1999-025AVW", "EPOCH": "2025-12-03T08:25:06.102048", "MEAN_MOTION": 14.11914464, "ECCENTRICITY": 0.002548, "INCLINATION": 98.7461, "RA_OF_ASC_NODE": 10.2475, "ARG_OF_PERICENTER": 272.1161, "MEAN_ANOMALY": 87.7093, "EPHEMERIS_TYPE": 0, "CLASSIFICATION_TYPE": "U", "NORAD_CAT_ID": 30836, "ELEMENT_SET_NO": 999, "REV_AT_EPOCH": 61871, "BSTAR": 0.00048653, "MEAN_MOTION_DOT": 8.49e-06, "MEAN_MOTION_DDOT": 0}, "tle": {"line1": "1 30836U 99025AVW 25337.35076507  .00000849  00000+0  48653-3 0  9997", "line2": "2 30836  98.7461  10.2475 0025480 272.1161  87.7093 14.11914464618717"}}, "geometry": {"type": "Point", "coordinates": [-162.99906453728624, 34.93413339841605]}}, {"type": "Feature", "properties": {"norad_id": 30837, "name": "FENGYUN 1C DEB", "group": "fengyun-1c-debris", "lat": 71.93935000364007, "lon": 172.35794734658393, "alt_km": 822.6249700572143, "timestamp": "2025-12-03T22:42:32.913813+00:00", "meta": {"OBJECT_NAME": "FENGYUN 1C DEB", "OBJECT_ID": "1999-025AVX", "EPOCH": "2025-12-03T12:37:28.120224", "MEAN_MOTION": 14.14503365, "ECCENTRICITY": 0.0032513, "INCLINATION": 98.6779, "RA_OF_ASC_NODE": 324.0226, "ARG_OF_PERICENTER": 159.3426, "MEAN_ANOMALY": 328.3014, "EPHEMERIS_TYPE": 0, "CLASSIFICATION_TYPE": "U", "NORAD_CAT_ID": 30837, "ELEMENT_SET_NO": 999, "REV_AT_EPOCH": 96688, "BSTAR": 0.00044051, "MEAN_MOTION_DOT": 8.06e-06, "MEAN_MOTION_DDOT": 0}, "tle": {"line1": "1 30837U 99025AVX 25337.52601991  .00000806  00000+0  44051-3 0  9999", "line2": "2 30837  98.6779 324.0226 0032513 159.3426 328.3014 14.14503365966882"}}, "geometry": {"type": "Point", "coordinates": [172.35794734658393, 71.93935000364007]}}, {"type": "Feature", "properties": {"norad_id": 30838, "name": "FENGYUN 1C DEB", "group": "fengyun-1c-debris", "lat": 34.29539045923996, "lon": 77.44899821585471, "alt_km": 713.7896810155862, "timestamp": "2025-12-03T22:42:32.913822+00:00", "meta": {"OBJECT_NAME": "FENGYUN 1C DEB", "OBJECT_ID": "1999-025AVY", "EPOCH": "2025-12-03T10:25:34.508352", "MEAN_MOTION": 14.47446344, "ECCENTRICITY": 0.0033616, "INCLINATION": 99.0424, "RA_OF_ASC_NODE": 250.6671, "ARG_OF_PERICENTER": 188.2519, "MEAN_ANOMALY": 171.8122, "EPHEMERIS_TYPE": 0, "CLASSIFICATION_TYPE": "U", "NORAD_CAT_ID": 30838, "ELEMENT_SET_NO": 999, "REV_AT_EPOCH": 97179, "BSTAR": 0.0035152, "MEAN_MOTION_DOT": 0.00012969, "MEAN_MOTION_DDOT": 0}, "tle": {"line1": "1 30838U 99025AVY 25337.43442718  .00012969  00000+0  35152-2 0  9994", "line2": "2 30838  99.0424 250.6671 0033616 188.2519 171.8122 14.47446344971798"}}, "geometry": {"type": "Point", "coordinates": [77.44899821585471, 34.29539045923996]}}, {"type": "Feature", "properties": {"norad_id": 30840, "name": "FENGYUN 1C DEB", "group": "fengyun-1c-debris", "lat": -27.108777191176685, "lon": 165.41535731388407, "alt_km": 847.6070549665255, "timestamp": "2025-12-03T22:42:32.913831+00:00", "meta": {"OBJECT_NAME": "FENGYUN 1C DEB", "OBJECT_ID": "1999-025AWA", "EPOCH": "2025-12-03T11:54:36.629856", "MEAN_MOTION": 14.60955759, "ECCENTRICITY": 0.0218802, "INCLINATION": 98.023, "RA_OF_ASC_NODE": 349.1194, "ARG_OF_PERICENTER": 39.5754, "MEAN_ANOMALY": 322.1192, "EPHEMERIS_TYPE": 0, "CLASSIFICATION_TYPE": "U", "NORAD_CAT_ID": 30840, "ELEMENT_SET_NO": 999, "REV_AT_EPOCH": 72996, "BSTAR": 0.00095118, "MEAN_MOTION_DOT": 6.501e-05, "MEAN_MOTION_DDOT": 0}, "tle": {"line1": "1 30840U 99025AWA 25337.49625729  .00006501  00000+0  95118-3 0  9992", "line2": "2 30840  98.0230 349.1194 0218802  39.5754 322.1192 14.60955759729968"}}, "geometry": {"type": "Point", "coordinates": [165.41535731388407, -27.108777191176685]}}]}